SL-8 R/B                
1 19257U 88053B   26114.89169144  .00000151  00000+0  57416-4 0  9997
2 19257  74.0496  27.2996 0020643 199.3009 230.3918 14.38941316983249
COSMOS 1975             
1 19573U 88093A   26114.88178617  .00005586  00000+0  19910-3 0  9999
2 19573  82.5186  71.2826 0011874  18.3293 341.8372 15.28631121 26466
SL-14 R/B               
1 19574U 88093B   26114.79893661  .00000266  00000+0  27811-4 0  9993
2 19574  82.5332 358.7710 0019227 243.8486 184.7535 14.85702332  7867
SL-16 R/B               
1 19650U 88102B   26114.88812500 -.00000129  00000+0 -41092-4 0  9999
2 19650  71.0001  54.2866 0016245 296.0670  63.8781 14.16157393933436
INTERCOSMOS 24          
1 20261U 89080A   26114.87540457  .00000222  00000+0  60403-4 0  9992
2 20261  82.6037  74.3242 1187504 185.5639 173.1213 12.59600545672611
SL-14 R/B               
1 20262U 89080C   26114.48359610  .00000255  00000+0  67053-4 0  9993
2 20262  82.5911 143.7987 1230993  80.1343 293.6188 12.50528140665872
DELTA 1 R/B             
1 20323U 89089B   26114.55790360  .00000172  00000+0  51474-4 0  9997
2 20323  97.0667 314.6881 0068442 338.8370  20.9999 14.50696089902382
ARIANE 40 R/B           
1 20443U 90005H   26114.67716605  .00000160  00000+0  64416-4 0  9990
2 20443  98.2999 173.9473 0011243  70.1548 290.0851 14.39898180899429
DELTA 2 R/B(1)          
1 20453U 90008B   26114.60845551  .00053603  00000+0  51688-3 0  9996
2 20453  35.6013 232.1038 0074542 329.5895  30.0532 15.61797679933305
COSMOS 2058             
1 20465U 90010A   26114.78948451  .00002098  00000+0  12146-3 0  9992
2 20465  82.4696   2.0081 0009634 164.2242 195.9290 15.11691196949207
SL-14 R/B               
1 20466U 90010B   26114.81977007  .00000358  00000+0  40402-4 0  9990
2 20466  82.5040 224.0553 0020727 144.4935 215.7664 14.83611007935322
SL-14 R/B               
1 20511U 90018B   26114.67925991  .00000240  00000+0  27112-4 0  9991
2 20511  82.5233 180.1187 0014907 303.3334  56.6452 14.82183688929399
HST                     
1 20580U 90037B   26114.60694977  .00005319  00000+0  16960-3 0  9998
2 20580  28.4744  86.5965 0001679 268.6266  91.4137 15.30131428780350
SL-16 R/B               
1 20625U 90046B   26114.64679777  .00000025  00000+0  37538-4 0  9997
2 20625  70.9992 201.3924 0016119 238.7129 121.2415 14.15014989854896
COSMOS 2084             
1 20663U 90055A   26114.54387922  .00001377  00000+0  10811-3 0  9991
2 20663  62.7887 179.1511 0009886 209.3961 150.6585 15.05896057943229
SL-6 R/B(2)             
1 20666U 90055D   26114.32402755  .00001733  00000+0  13886-3 0  9993
2 20666  62.7807  98.6365 0032169 356.6247   3.4630 15.03788808945050
SL-8 R/B                
1 20775U 90078B   26114.71990094  .00017834  00000+0  52266-3 0  9994
2 20775  82.9049 209.8744 0356290 218.4812 139.0518 14.90327488816154
