[{"OBJECT_NAME":"SL-8 R/B","OBJECT_ID":"1988-053B","EPOCH":"2026-04-24T21:24:02.140416","MEAN_MOTION":14.38941316,"ECCENTRICITY":0.0020643,"INCLINATION":74.0496,"RA_OF_ASC_NODE":27.2996,"ARG_OF_PERICENTER":199.3009,"MEAN_ANOMALY":230.3918,"EPHEMERIS_TYPE":0,"CLASSIFICATION_TYPE":"U","NORAD_CAT_ID":19257,"ELEMENT_SET_NO":999,"REV_AT_EPOCH":98324,"BSTAR":5.7416e-5,"MEAN_MOTION_DOT":1.51e-6,"MEAN_MOTION_DDOT":0},{"OBJECT_NAME":"COSMOS 1975","OBJECT_ID":"1988-093A","EPOCH":"2026-04-24T21:09:46.325088","MEAN_MOTION":15.28631121,"ECCENTRICITY":0.0011874,"INCLINATION":82.5186,"RA_OF_ASC_NODE":71.2826,"ARG_OF_PERICENTER":18.3293,"MEAN_ANOMALY":341.8372,"EPHEMERIS_TYPE":0,"CLASSIFICATION_TYPE":"U","NORAD_CAT_ID":19573,"ELEMENT_SET_NO":999,"REV_AT_EPOCH":2646,"BSTAR":0.0001991,"MEAN_MOTION_DOT":5.586e-5,"MEAN_MOTION_DDOT":0},{"OBJECT_NAME":"SL-14 R/B","OBJECT_ID":"1988-093B","EPOCH":"2026-04-24T19:10:28.123104","MEAN_MOTION":14.85702332,"ECCENTRICITY":0.0019227,"INCLINATION":82.5332,"RA_OF_ASC_NODE":358.771,"ARG_OF_PERICENTER":243.8486,"MEAN_ANOMALY":184.7535,"EPHEMERIS_TYPE":0,"CLASSIFICATION_TYPE":"U","NORAD_CAT_ID":19574,"ELEMENT_SET_NO":999,"REV_AT_EPOCH":786,"BSTAR":2.7811e-5,"MEAN_MOTION_DOT":2.66e-6,"MEAN_MOTION_DDOT":0},{"OBJECT_NAME":"SL-16 R/B","OBJECT_ID":"1988-102B","EPOCH":"2026-04-24T21:18:54.000000","MEAN_MOTION":14.16157393,"ECCENTRICITY":0.0016245,"INCLINATION":71.0001,"RA_OF_ASC_NODE":54.2866,"ARG_OF_PERICENTER":296.067,"MEAN_ANOMALY":63.8781,"EPHEMERIS_TYPE":0,"CLASSIFICATION_TYPE":"U","NORAD_CAT_ID":19650,"ELEMENT_SET_NO":999,"REV_AT_EPOCH":93343,"BSTAR":-4.1092e-5,"MEAN_MOTION_DOT":-1.29e-6,"MEAN_MOTION_DDOT":0},{"OBJECT_NAME":"INTERCOSMOS 24","OBJECT_ID":"1989-080A","EPOCH":"2026-04-24T21:00:34.954848","MEAN_MOTION":12.59600545,"ECCENTRICITY":0.1187504,"INCLINATION":82.6037,"RA_OF_ASC_NODE":74.3242,"ARG_OF_PERICENTER":185.5639,"MEAN_ANOMALY":173.1213,"EPHEMERIS_TYPE":0,"CLASSIFICATION_TYPE":"U","NORAD_CAT_ID":20261,"ELEMENT_SET_NO":999,"REV_AT_EPOCH":67261,"BSTAR":6.0403e-5,"MEAN_MOTION_DOT":2.22e-6,"MEAN_MOTION_DDOT":0},{"OBJECT_NAME":"SL-14 R/B","OBJECT_ID":"1989-080C","EPOCH":"2026-04-24T11:36:22.703040","MEAN_MOTION":12.5052814,"ECCENTRICITY":0.1230993,"INCLINATION":82.5911,"RA_OF_ASC_NODE":143.7987,"ARG_OF_PERICENTER":80.1343,"MEAN_ANOMALY":293.6188,"EPHEMERIS_TYPE":0,"CLASSIFICATION_TYPE":"U","NORAD_CAT_ID":20262,"ELEMENT_SET_NO":999,"REV_AT_EPOCH":66587,"BSTAR":6.7053e-5,"MEAN_MOTION_DOT":2.55e-6,"MEAN_MOTION_DDOT":0},{"OBJECT_NAME":"DELTA 1 R/B","OBJECT_ID":"1989-089B","EPOCH":"2026-04-24T13:23:22.871040","MEAN_MOTION":14.50696089,"ECCENTRICITY":0.0068442,"INCLINATION":97.0667,"RA_OF_ASC_NODE":314.6881,"ARG_OF_PERICENTER":338.837,"MEAN_ANOMALY":20.9999,"EPHEMERIS_TYPE":0,"CLASSIFICATION_TYPE":"U","NORAD_CAT_ID":20323,"ELEMENT_SET_NO":999,"REV_AT_EPOCH":90238,"BSTAR":5.1474e-5,"MEAN_MOTION_DOT":1.72e-6,"MEAN_MOTION_DDOT":0},{"OBJECT_NAME":"ARIANE 40 R/B","OBJECT_ID":"1990-005H","EPOCH":"2026-04-24T16:15:07.146720","MEAN_MOTION":14.3989818,"ECCENTRICITY":0.0011243,"INCLINATION":98.2999,"RA_OF_ASC_NODE":173.9473,"ARG_OF_PERICENTER":70.1548,"MEAN_ANOMALY":290.0851,"EPHEMERIS_TYPE":0,"CLASSIFICATION_TYPE":"U","NORAD_CAT_ID":20443,"ELEMENT_SET_NO":999,"REV_AT_EPOCH":89942,"BSTAR":6.4416e-5,"MEAN_MOTION_DOT":1.6e-6,"MEAN_MOTION_DDOT":0},{"OBJECT_NAME":"DELTA 2 R/B(1)","OBJECT_ID":"1990-008B","EPOCH":"2026-04-24T14:36:10.556064","MEAN_MOTION":15.61797679,"ECCENTRICITY":0.0074542,"INCLINATION":35.6013,"RA_OF_ASC_NODE":232.1038,"ARG_OF_PERICENTER":329.5895,"MEAN_ANOMALY":30.0532,"EPHEMERIS_TYPE":0,"CLASSIFICATION_TYPE":"U","NORAD_CAT_ID":20453,"ELEMENT_SET_NO":999,"REV_AT_EPOCH":93330,"BSTAR":0.00051688,"MEAN_MOTION_DOT":0.00053603,"MEAN_MOTION_DDOT":0},{"OBJECT_NAME":"COSMOS 2058","OBJECT_ID":"1990-010A","EPOCH":"2026-04-24T18:56:51.461664","MEAN_MOTION":15.11691196,"ECCENTRICITY":0.0009634,"INCLINATION":82.4696,"RA_OF_ASC_NODE":2.0081,"ARG_OF_PERICENTER":164.2242,"MEAN_ANOMALY":195.929,"EPHEMERIS_TYPE":0,"CLASSIFICATION_TYPE":"U","NORAD_CAT_ID":20465,"ELEMENT_SET_NO":999,"REV_AT_EPOCH":94920,"BSTAR":0.00012146,"MEAN_MOTION_DOT":2.098e-5,"MEAN_MOTION_DDOT":0},{"OBJECT_NAME":"SL-14 R/B","OBJECT_ID":"1990-010B","EPOCH":"2026-04-24T19:40:28.134048","MEAN_MOTION":14.83611007,"ECCENTRICITY":0.0020727,"INCLINATION":82.504,"RA_OF_ASC_NODE":224.0553,"ARG_OF_PERICENTER":144.4935,"MEAN_ANOMALY":215.7664,"EPHEMERIS_TYPE":0,"CLASSIFICATION_TYPE":"U","NORAD_CAT_ID":20466,"ELEMENT_SET_NO":999,"REV_AT_EPOCH":93532,"BSTAR":4.0402e-5,"MEAN_MOTION_DOT":3.58e-6,"MEAN_MOTION_DDOT":0},{"OBJECT_NAME":"SL-14 R/B","OBJECT_ID":"1990-018B","EPOCH":"2026-04-24T16:18:08.056224","MEAN_MOTION":14.82183688,"ECCENTRICITY":0.0014907,"INCLINATION":82.5233,"RA_OF_ASC_NODE":180.1187,"ARG_OF_PERICENTER":303.3334,"MEAN_ANOMALY":56.6452,"EPHEMERIS_TYPE":0,"CLASSIFICATION_TYPE":"U","NORAD_CAT_ID":20511,"ELEMENT_SET_NO":999,"REV_AT_EPOCH":92939,"BSTAR":2.7112e-5,"MEAN_MOTION_DOT":2.4e-6,"MEAN_MOTION_DDOT":0},{"OBJECT_NAME":"HST","OBJECT_ID":"1990-037B","EPOCH":"2026-04-24T14:34:00.460128","MEAN_MOTION":15.30131428,"ECCENTRICITY":0.0001679,"INCLINATION":28.4744,"RA_OF_ASC_NODE":86.5965,"ARG_OF_PERICENTER":268.6266,"MEAN_ANOMALY":91.4137,"EPHEMERIS_TYPE":0,"CLASSIFICATION_TYPE":"U","NORAD_CAT_ID":20580,"ELEMENT_SET_NO":999,"REV_AT_EPOCH":78035,"BSTAR":0.0001696,"MEAN_MOTION_DOT":5.319e-5,"MEAN_MOTION_DDOT":0},{"OBJECT_NAME":"SL-16 R/B","OBJECT_ID":"1990-046B","EPOCH":"2026-04-24T15:31:23.327328","MEAN_MOTION":14.15014989,"ECCENTRICITY":0.0016119,"INCLINATION":70.9992,"RA_OF_ASC_NODE":201.3924,"ARG_OF_PERICENTER":238.7129,"MEAN_ANOMALY":121.2415,"EPHEMERIS_TYPE":0,"CLASSIFICATION_TYPE":"U","NORAD_CAT_ID":20625,"ELEMENT_SET_NO":999,"REV_AT_EPOCH":85489,"BSTAR":3.7538e-5,"MEAN_MOTION_DOT":2.5e-7,"MEAN_MOTION_DDOT":0},{"OBJECT_NAME":"COSMOS 2084","OBJECT_ID":"1990-055A","EPOCH":"2026-04-24T13:03:11.164608","MEAN_MOTION":15.05896057,"ECCENTRICITY":0.0009886,"INCLINATION":62.7887,"RA_OF_ASC_NODE":179.1511,"ARG_OF_PERICENTER":209.3961,"MEAN_ANOMALY":150.6585,"EPHEMERIS_TYPE":0,"CLASSIFICATION_TYPE":"U","NORAD_CAT_ID":20663,"ELEMENT_SET_NO":999,"REV_AT_EPOCH":94322,"BSTAR":0.00010811,"MEAN_MOTION_DOT":1.377e-5,"MEAN_MOTION_DDOT":0},{"OBJECT_NAME":"SL-6 R/B(2)","OBJECT_ID":"1990-055D","EPOCH":"2026-04-24T07:46:35.980320","MEAN_MOTION":15.03788808,"ECCENTRICITY":0.0032169,"INCLINATION":62.7807,"RA_OF_ASC_NODE":98.6365,"ARG_OF_PERICENTER":356.6247,"MEAN_ANOMALY":3.463,"EPHEMERIS_TYPE":0,"CLASSIFICATION_TYPE":"U","NORAD_CAT_ID":20666,"ELEMENT_SET_NO":999,"REV_AT_EPOCH":94505,"BSTAR":0.00013886,"MEAN_MOTION_DOT":1.733e-5,"MEAN_MOTION_DDOT":0},{"OBJECT_NAME":"SL-8 R/B","OBJECT_ID":"1990-078B","EPOCH":"2026-04-24T17:16:39.441216","MEAN_MOTION":14.90327488,"ECCENTRICITY":0.035629,"INCLINATION":82.9049,"RA_OF_ASC_NODE":209.8744,"ARG_OF_PERICENTER":218.4812,"MEAN_ANOMALY":139.0518,"EPHEMERIS_TYPE":0,"CLASSIFICATION_TYPE":"U","NORAD_CAT_ID":20775,"ELEMENT_SET_NO":999,"REV_AT_EPOCH":81615,"BSTAR":0.00052266,"MEAN_MOTION_DOT":0.00017834,"MEAN_MOTION_DDOT":0}]
